BEESAT-4                
1 41619U 16040W   21195.08919222  .00001773  00000-0  72378-4 0  9992
2 41619  97.2678 250.4332 0009218 230.8279 129.2141 15.25659985269071
CAS-2T & KS-1Q          
1 41847U 16066G   21195.12184396  .00000145  00000-0  31400-4 0  9997
2 41847  98.5995 254.3620 0366063 140.6701 222.1694 14.38209253245718
NAYIF-1 (EO-88)         
1 42017U 17008BX  21194.75129297  .00002012  00000-0  75534-4 0  9992
2 42017  97.3147 261.8808 0006540  31.0643 329.0983 15.28337863245272
ZHUHAI-1 02 (CAS-4B)    
1 42759U 17034B   21194.95857282  .00000487  00000-0  42597-4 0  9995
2 42759  43.0186  35.3596 0009872 326.8892 177.3248 15.10264189225150
ZHUHAI-1 01 (CAS-4A)    
1 42761U 17034D   21195.01760198  .00000450  00000-0  40255-4 0  9994
2 42761  43.0183  34.0712 0010087 326.9595 196.0566 15.10351664225164
MAX VALIER SAT          
1 42778U 17036P   21194.77038097  .00001246  00000-0  54630-4 0  9998
2 42778  97.2530 242.5169 0013677  85.0693 275.2105 15.23705757225294
RADFXSAT (FOX-1B)       
1 43017U 17073E   21195.31697411  .00000291  00000-0  28178-4 0  9995
2 43017  97.7046  98.2407 0253920 212.4758 146.0614 14.79598049197094
FOX-1D (AO-92)          
1 43137U 18004AC  21194.77058915  .00001345  00000-0  56117-4 0  9997
2 43137  97.4059 268.5336 0010333 114.6945 245.5370 15.25361850194676
DIWATA-2B               
1 43678U 18084H   21194.94861499 -.00000235  00000-0 -17541-4 0  9990
2 43678  97.9274 320.3669 0009405 331.2906  28.7777 14.91761517147382
ES'HAIL 2               
1 43700U 18090A   21195.33715049  .00000148  00000-0  00000+0 0  9994
2 43700   0.0158  35.1338 0001517 111.2735 293.2118  1.00272438  9885
FOX-1CLIFF (AO-95)      
1 43770U 18099N   21195.14934834  .00000613  00000-0  60617-4 0  9996
2 43770  97.6640 264.7459 0013621 334.4724  25.5822 14.95357473142449
ITASAT 1                
1 43786U 18099AE  21194.72884438  .00000406  00000-0  41651-4 0  9997
2 43786  97.6657 265.0312 0014145 327.6101  32.4250 14.95643510142410
JY1SAT (JO-97)          
1 43803U 18099AX  21195.15655328  .00000417  00000-0  42365-4 0  9994
2 43803  97.6623 265.1984 0014052 326.8797  33.1543 14.95901134142487
UWE-4                   
1 43880U 18111E   21194.72119006 -.00000140  00000-0 -71755-5 0  9995
2 43880  97.6852 102.0055 0012939  22.1557 338.0221 14.96904496139016
NEXUS (FO-99)           
1 43937U 19003F   21195.40685184  .00001347  00000-0  54997-4 0  9996
2 43937  97.1742 237.5078 0021231 277.4712  82.4115 15.25874222138370
PSAT2 (NO-104)          
1 44354U 19036R   21195.46449945  .00015338  00000-0  19910-3 0  9995
2 44354  28.5300 306.8518 0321510 209.0185 149.2182 15.14510496113062
BRICSAT2 (NO-103)       
1 44355U 19036S   21195.46029162  .00027091 -62305-5  26989-3 0  9996
2 44355  28.5276 257.2573 0254632 289.9059  67.4274 15.31939272113566
JAISAT-1                
1 44419U 19038F   21194.68169533  .00000923  00000-0  54578-4 0  9998
2 44419  97.5898 159.2893 0019829 218.4873 141.4945 15.13845433111760
DUCHIFAT-3              
1 44854U 19089C   21195.36184719  .00000422  00000-0  40068-4 0  9999
2 44854  36.9679 301.4999 0009313 350.6295   9.4282 14.99537178 87147
CAS-6 (TO-108)          
1 44881U 19093C   21194.87628034  .00000067  00000-0  15277-4 0  9991
2 44881  97.9238 273.4167 0014305 202.5249 157.5328 14.81462665 84648
RS-44 & BREEZE-KM R/B   
1 44909U 19096E   21194.74034717  .00000031  00000-0  75430-4 0  9998
2 44909  82.5214  95.3500 0218203  31.8950 329.5149 12.79710783 72180
ORBITAL FACTORY 2 (OF-2)
1 45113U 19071C   21194.62746810  .00002384  00000-0  77887-4 0  9991
2 45113  51.6419 270.5880 0012171  29.7873 330.3801 15.35962460 81198
HUSKYSAT-1 (HO-107)     
1 45119U 19071J   21195.41928113  .00001676  00000-0  58003-4 0  9995
2 45119  51.6414 266.1192 0011566  29.3931 330.7700 15.35979062 81316
BY70-2                  
1 45857U 20042B   21194.92923672  .00001288  00000-0  18938-3 0  9995
2 45857  97.9837 270.4021 0012646 124.7543 235.4853 14.77107449 55458
SALSAT                  
1 46495U 20068K   21194.88301247  .00000289  00000-0  25735-4 0  9999
2 46495  97.6954 132.2231 0016568 349.8298  10.2589 15.03492709 43308
BY70-3                  
1 46839U 20079N   21194.87371731  .00002677  00000-0  84003-4 0  9993
2 46839  97.2395 268.2065 0008838 107.8018   2.4542 15.33870699 38254
RADFXSAT-2 (AO-109)     
1 47311U 21002C   21195.42932023  .00000496  00000-0  33516-4 0  9995
2 47311  60.6842 190.2102 0039416  62.3849 298.1230 15.21735801 26987
UVSQ-SAT                
1 47438U 21006AB  21194.70062177  .00000810  00000-0  49208-4 0  9998
2 47438  97.4857 255.4534 0012976  15.1618 344.9999 15.13203069 26020
DIY-1 (ARDUIQUBE)       
1 47963U 21022AH  21194.71650616  .00001422  00000-0  97865-4 0  9993
2 47963  97.5567  96.5853 0018301 211.3288 148.6851 15.07373635 15856
